{
  "type": "FeatureCollection",
  "name": "Zandvoort_Circuit_Master_V5",
  "features": [
    {
      "type": "Feature",
      "properties": { "name": "Sector 1", "stroke": "#FF0000", "stroke-width": 4 },
      "geometry": {
        "type": "LineString",
        "coordinates": [
          [4.540491, 52.388408, 2.1], [4.542096, 52.390776, 3.5], [4.542706, 52.391645, 5.2], [4.542844, 52.391741, 6.0], [4.543031, 52.391795, 6.4], [4.543235, 52.391811, 6.2], [4.543424, 52.391787, 5.8], [4.543602, 52.391713, 5.1], [4.543726, 52.39162, 4.4], [4.543792, 52.391504, 3.8], [4.543797, 52.391375, 3.4], [4.54362, 52.391124, 3.9], [4.543111, 52.390368, 4.8], [4.542947, 52.390016, 5.5], [4.542881, 52.389649, 6.8], [4.542916, 52.389305, 7.9], [4.542863, 52.389165, 8.5], [4.542738, 52.389071, 9.2], [4.542488, 52.388947, 10.1], [4.542219, 52.388882, 10.8], [4.541476, 52.388705, 12.1], [4.541285, 52.388617, 12.5], [4.541233, 52.388487, 12.8], [4.541226, 52.38837, 12.7], [4.541303, 52.388251, 12.5], [4.541447, 52.388166, 12.1], [4.541627, 52.388121, 11.5], [4.541903, 52.388125, 11.8], [4.543264, 52.38839, 13.5], [4.543896, 52.388462, 14.1], [4.544441, 52.388473, 14.8], [4.544923, 52.388451, 14.5], [4.545379, 52.388404, 13.8], [4.545704, 52.388343, 13.2], [4.546236, 52.388274, 12.5], [4.546727, 52.388248, 11.9], [4.547075, 52.388292, 11.4], [4.547494, 52.388359, 10.9], [4.547998, 52.388514, 10.2], [4.54859, 52.38875, 9.4], [4.548991, 52.388866, 8.8], [4.549348, 52.388929, 8.2]
        ]
      }
    },
    {
      "type": "Feature",
      "properties": { "name": "Sector 2", "stroke": "#0000FF", "stroke-width": 4 },
      "geometry": {
        "type": "LineString",
        "coordinates": [
          [4.549348, 52.388929, 8.2], [4.549819, 52.388961, 7.8], [4.55019, 52.388956, 7.4], [4.551737, 52.388898, 7.9], [4.552094, 52.388848, 8.8], [4.552425, 52.388747, 9.5], [4.55266, 52.388624, 10.1], [4.552811, 52.388493, 10.5], [4.552958, 52.388343, 10.8], [4.553036, 52.38817, 11.0], [4.553061, 52.387987, 10.8], [4.553033, 52.387808, 10.4], [4.552947, 52.387626, 9.8], [4.552761, 52.387428, 9.2], [4.55205, 52.386836, 8.5], [4.551788, 52.386573, 7.9], [4.551194, 52.38579, 6.8], [4.550909, 52.385729, 6.4], [4.550557, 52.385704, 6.1], [4.55022, 52.385714, 5.9], [4.549823, 52.385755, 5.7], [4.549411, 52.385841, 5.4], [4.54897, 52.38597, 5.2], [4.548533, 52.38616, 5.0], [4.548263, 52.386343, 4.8], [4.548214, 52.386455, 4.7], [4.548257, 52.386573, 4.7], [4.548425, 52.386721, 4.9], [4.548665, 52.386815, 5.2], [4.549018, 52.386894, 5.6], [4.549621, 52.386952, 6.1], [4.550202, 52.387041, 6.5], [4.550732, 52.387165, 7.1], [4.551025, 52.387291, 7.4], [4.551136, 52.387442, 7.5], [4.551151, 52.387607, 7.3], [4.551056, 52.387771, 7.1], [4.550811, 52.38792, 6.8], [4.550591, 52.387967, 6.5], [4.549448, 52.388052, 5.8], [4.548297, 52.38805, 5.2], [4.547074, 52.38796, 4.8], [4.54604, 52.387801, 4.3], [4.5454, 52.387678, 3.9], [4.544694, 52.387518, 3.4], [4.544019, 52.387343, 2.9]
        ]
      }
    },
    {
      "type": "Feature",
      "properties": { "name": "Sector 3", "stroke": "#FFFF00", "stroke-width": 4 },
      "geometry": {
        "type": "LineString",
        "coordinates": [
          [4.544019, 52.387343, 2.9], [4.543469, 52.387144, 2.5], [4.543267, 52.387091, 2.3], [4.543123, 52.387108, 2.2], [4.542988, 52.387222, 2.1], [4.542844, 52.387388, 2.0], [4.542646, 52.387463, 1.9], [4.542392, 52.387469, 1.8], [4.542144, 52.387398, 1.8], [4.542012, 52.387289, 1.9], [4.541951, 52.387172, 1.8], [4.542012, 52.386934, 1.7], [4.542566, 52.38496, 1.4], [4.542578, 52.384828, 1.4], [4.542517, 52.384693, 1.5], [4.542419, 52.384579, 1.6], [4.542324, 52.384506, 1.7], [4.542089, 52.384409, 1.8], [4.541838, 52.384374, 1.9], [4.540774, 52.384363, 2.0], [4.540557, 52.38437, 2.1], [4.540241, 52.3844, 2.2], [4.539914, 52.384465, 2.3], [4.539645, 52.38454, 2.4], [4.539287, 52.384712, 2.8], [4.539054, 52.384902, 3.2], [4.538895, 52.385065, 3.6], [4.538779, 52.385285, 4.1], [4.538742, 52.385478, 4.5], [4.538775, 52.385793, 3.5], [4.538873, 52.386017, 2.8], [4.540408, 52.38829, 2.2], [4.540491, 52.388408, 2.1]
        ]
      }
    },
    { "type": "Feature", "properties": { "name": "T1 (Tarzanbocht)", "number": 1, "alt": 6.2, "banking": 4.0 }, "geometry": { "type": "Point", "coordinates": [4.54336166, 52.39173485, 6.2] } },
    { "type": "Feature", "properties": { "name": "T2 (Gerlachbocht)", "number": 2, "alt": 6.8, "banking": 3.0 }, "geometry": { "type": "Point", "coordinates": [4.54276085, 52.38906344, 6.8] } },
    { "type": "Feature", "properties": { "name": "T3 (Hugenholtzbocht)", "number": 3, "alt": 12.7, "banking": 18.2 }, "geometry": { "type": "Point", "coordinates": [4.54121590, 52.38826461, 12.7] } },
    { "type": "Feature", "properties": { "name": "T4 (Hunzerug)", "number": 4, "alt": 14.8, "banking": 0.0 }, "geometry": { "type": "Point", "coordinates": [4.54424143, 52.38852652, 14.8] } },
    { "type": "Feature", "properties": { "name": "T5 (Slotemakerbocht)", "number": 5, "alt": 11.4, "banking": 0.0 }, "geometry": { "type": "Point", "coordinates": [4.54700947, 52.38825151, 11.4] } },
    { "type": "Feature", "properties": { "name": "T6", "number": 6, "alt": 8.2, "banking": 0.0 }, "geometry": { "type": "Point", "coordinates": [4.54962730, 52.38902416, 8.2] } },
    { "type": "Feature", "properties": { "name": "T7 (Scheivlak)", "number": 7, "alt": 11.0, "banking": 5.0 }, "geometry": { "type": "Point", "coordinates": [4.55301762, 52.38835628, 11.0] } },
    { "type": "Feature", "properties": { "name": "T8 (Mastersbocht)", "number": 8, "alt": 6.1, "banking": 0.0 }, "geometry": { "type": "Point", "coordinates": [4.55054998, 52.38568467, 6.1] } },
    { "type": "Feature", "properties": { "name": "T9", "number": 9, "alt": 4.7, "banking": 0.0 }, "geometry": { "type": "Point", "coordinates": [4.54821110, 52.38654903, 4.7] } },
    { "type": "Feature", "properties": { "name": "T10", "number": 10, "alt": 7.4, "banking": 0.0 }, "geometry": { "type": "Point", "coordinates": [4.55108643, 52.38775387, 7.4] } },
    { "type": "Feature", "properties": { "name": "T11 (Hans Ernst 1)", "number": 11, "alt": 2.3, "banking": 0.0 }, "geometry": { "type": "Point", "coordinates": [4.54327583, 52.38709907, 2.3] } },
    { "type": "Feature", "properties": { "name": "T12 (Hans Ernst 2)", "number": 12, "alt": 1.9, "banking": 2.0 }, "geometry": { "type": "Point", "coordinates": [4.54207420, 52.38740028, 1.9] } },
    { "type": "Feature", "properties": { "name": "T13 (Kumhobocht)", "number": 13, "alt": 1.8, "banking": 0.0 }, "geometry": { "type": "Point", "coordinates": [4.54211712, 52.38442738, 1.8] } },
    { "type": "Feature", "properties": { "name": "T14 (Luyendykbocht)", "number": 14, "alt": 4.5, "banking": 19.0 }, "geometry": { "type": "Point", "coordinates": [4.53872681, 52.38548822, 4.5] } }
  ]
}
